[{"OBJECT_NAME":"STARLINK-34676","OBJECT_ID":"2025-152M","EPOCH":"2026-03-09T14:49:40.007424","MEAN_MOTION":15.05655301,"ECCENTRICITY":0.0001979,"INCLINATION":97.6019,"RA_OF_ASC_NODE":285.3895,"ARG_OF_PERICENTER":80.3489,"MEAN_ANOMALY":279.7962,"EPHEMERIS_TYPE":0,"CLASSIFICATION_TYPE":"U","NORAD_CAT_ID":64853,"ELEMENT_SET_NO":999,"REV_AT_EPOCH":3540,"BSTAR":0.00029449,"MEAN_MOTION_DOT":4.192e-5,"MEAN_MOTION_DDOT":0},{"OBJECT_NAME":"DIADEME 1","OBJECT_ID":"1967-011A","EPOCH":"2026-03-09T04:18:35.665344","MEAN_MOTION":14.73682571,"ECCENTRICITY":0.02083573,"INCLINATION":39.9159,"RA_OF_ASC_NODE":131.181,"ARG_OF_PERICENTER":280.4589,"MEAN_ANOMALY":77.2777,"EPHEMERIS_TYPE":0,"CLASSIFICATION_TYPE":"U","NORAD_CAT_ID":2674,"ELEMENT_SET_NO":999,"REV_AT_EPOCH":7534,"BSTAR":0.00083818809,"MEAN_MOTION_DOT":7.747e-5,"MEAN_MOTION_DDOT":0}]
